MEAN_MOTION;ECCENTRICITY;INCLINATION;RA_OF_ASC_NODE;ARG_OF_PERICENTER;MEAN_ANOMALY;BSTAR;MEAN_MOTION_DOT;MEAN_MOTION_DDOT;TYPE
0.99155578;0.0010633;8.2713;47.4193;95.6089;270.4358;0;-2.64E-6;0;Intelsat
0.99155259;0.0010675;8.2729;47.4129;95.4156;269.1111;0;-2.65E-6;0;Intelsat
0.99154984;0.0010705;8.2744;47.4065;95.3004;267.72;0;-2.62E-6;0;Intelsat
0.99154823;0.0010728;8.2753;47.4028;95.2314;118.1485;0;-2.58E-6;0;Intelsat
0.99154656;0.001074;8.2758;47.4006;95.1323;240.7674;0;-2.56E-6;0;Intelsat
0.99154372;0.0010755;8.2768;47.3963;95.065;121.9731;0;-2.51E-6;0;Intelsat
0.99153845;0.00108;8.2791;47.387;94.8341;289.22;0;-2.34E-6;0;Intelsat
0.99153494;0.0010822;8.2805;47.3812;94.6951;262.241;0;-2.21E-6;0;Intelsat
0.99153463;0.0010823;8.2806;47.3807;94.6932;287.8399;0;-2.19E-6;0;Intelsat
0.99153085;0.0010845;8.2822;47.3745;94.5467;286.4362;0;-2.03E-6;0;Intelsat
0.99152726;0.0010867;8.2836;47.3687;94.3691;266.2034;0;-1.85E-6;0;Intelsat
0.99152708;0.0010869;8.2837;47.3684;94.366;285.1091;0;-1.84E-6;0;Intelsat
0.99152383;0.0010888;8.2851;47.3627;94.186;258.1215;0;-1.66E-6;0;Intelsat
0.99152009;0.0010918;8.2867;47.3562;93.9542;282.4448;0;-1.43E-6;0;Intelsat
0.99152009;0.0010918;8.2867;47.3562;93.9542;282.4448;0;-1.43E-6;0;Intelsat
0.99151721;0.001095;8.2883;47.3501;93.6856;281.1844;0;-1.21E-6;0;Intelsat
0.99151554;0.0010956;8.289;47.3472;93.5589;98.0843;0;-1.1E-6;0;Intelsat
0.99151413;0.0010976;8.2898;47.3441;93.4654;279.8691;0;-9.9E-7;0;Intelsat
0.99151413;0.0010976;8.2898;47.3441;93.4654;279.8691;0;-9.9E-7;0;Intelsat
0.99151294;0.0010985;8.2906;47.3411;93.3399;99.2641;0;-8.8E-7;0;Intelsat
0.99151205;0.0011003;8.2913;47.3381;93.2389;278.5283;0;-7.7E-7;0;Intelsat
0.99151109;0.0011021;8.2921;47.3351;93.0968;97.9312;0;-6.6E-7;0;Intelsat
0.9915099;0.0011044;8.2929;47.3321;92.9688;277.2702;0;-5.5E-7;0;Intelsat
0.99150792;0.0011088;8.2944;47.3261;92.696;276.0181;0;-3.3E-7;0;Intelsat
0.9915075;0.0011133;8.296;47.3201;92.4315;274.7213;0;-1.2E-7;0;Intelsat
0.9915075;0.0011133;8.296;47.3201;92.4315;274.7213;0;-1.2E-7;0;Intelsat
0.991507;0.001118;8.2976;47.3142;92.1992;273.4229;0;7.0E-8;0;Intelsat
0.99150686;0.0011235;8.2992;47.3084;91.9528;272.1279;0;2.5E-7;0;Intelsat
0.99150696;0.0011264;8.2999;47.3054;91.8436;91.4965;0;3.3E-7;0;Intelsat
0.99150786;0.0011323;8.3015;47.2996;91.6244;91.3683;0;4.7E-7;0;Intelsat
0.9915081;0.0011324;8.3016;47.2993;91.6348;107.9682;0;4.8E-7;0;Intelsat
0.99150968;0.0011379;8.3032;47.2935;91.4514;110.8075;0;5.9E-7;0;Intelsat
0.99151117;0.0011444;8.3047;47.2879;91.2589;93.4571;0;6.7E-7;0;Intelsat
0.9915114;0.0011448;8.3048;47.2875;91.2604;117.1231;0;6.7E-7;0;Intelsat
0.99151269;0.0011465;8.3055;47.2847;91.1771;292.3622;0;7.0E-7;0;Intelsat
0.99151666;0.0011564;8.3078;47.2758;91.0224;110.2229;0;7.1E-7;0;Intelsat
0.99152033;0.0011633;8.3094;47.2695;90.9001;131.3236;0;6.7E-7;0;Intelsat
0.99152374;0.0011694;8.3108;47.2639;90.7969;107.3529;0;6.0E-7;0;Intelsat
0.99152705;0.0011749;8.3123;47.2582;90.7273;81.4294;0;4.9E-7;0;Intelsat
0.99153156;0.001181;8.3139;47.2516;90.6906;104.4268;0;3.3E-7;0;Intelsat
0.99153603;0.0011858;8.3154;47.2454;90.6771;105.8417;0;1.5E-7;0;Intelsat
0.99154086;0.0011897;8.317;47.2389;90.6878;130.4944;0;-7.0E-8;0;Intelsat
0.99154481;0.0011962;8.3185;47.2329;90.6153;124.9418;0;-3.0E-7;0;Intelsat
0.99154943;0.0012002;8.32;47.227;90.598;123.1116;0;-5.4E-7;0;Intelsat
0.99155346;0.0012031;8.3215;47.2211;90.5906;117.0919;0;-7.9E-7;0;Intelsat
0.99155716;0.0012063;8.323;47.2153;90.5807;103.6697;0;-1.05E-6;0;Intelsat
0.99155922;0.0012091;8.324;47.2116;90.5588;333.3754;0;-1.22E-6;0;Intelsat
0.99156068;0.00121;8.3246;47.2093;90.5441;113.2083;0;-1.32E-6;0;Intelsat
0.99156411;0.0012138;8.3261;47.2035;90.4877;110.1039;0;-1.59E-6;0;Intelsat
0.99156624;0.001217;8.3275;47.1979;90.4274;96.145;0;-1.84E-6;0;Intelsat
0.99156655;0.0012171;8.3276;47.1977;90.4284;107.8804;0;-1.85E-6;0;Intelsat
0.99156859;0.0012206;8.3291;47.1919;90.3472;108.4074;0;-2.1E-6;0;Intelsat
0.99157014;0.0012241;8.3305;47.1862;90.2753;105.2228;0;-2.33E-6;0;Intelsat
0.99157036;0.0012242;8.3307;47.1858;90.2756;128.0145;0;-2.34E-6;0;Intelsat
0.99157103;0.0012285;8.332;47.1807;90.1871;86.7958;0;-2.53E-6;0;Intelsat
0.99157111;0.0012294;8.3321;47.18;90.162;127.0865;0;-2.55E-6;0;Intelsat
0.99157162;0.0012332;8.3335;47.1751;90.0787;78.746;0;-2.7E-6;0;Intelsat
0.99157187;0.001234;8.3336;47.1743;90.0676;123.4158;0;-2.72E-6;0;Intelsat
0.9915709;0.0012388;8.3351;47.1688;89.9657;109.4923;0;-2.86E-6;0;Intelsat
0.99156948;0.0012449;8.3367;47.1629;89.8574;119.5591;0;-2.97E-6;0;Intelsat
0.99156748;0.0012503;8.3382;47.1573;89.7526;115.398;0;-3.04E-6;0;Intelsat
0.99156489;0.0012569;8.34;47.1507;89.6455;173.753;0;-3.06E-6;0;Intelsat
0.99156226;0.0012626;8.3412;47.146;89.5606;110.7795;0;-3.04E-6;0;Intelsat
0.99155875;0.001269;8.3428;47.1401;89.4971;124.9223;0;-2.98E-6;0;Intelsat
0.99155544;0.0012737;8.3439;47.1361;89.4371;27.1879;0;-2.91E-6;0;Intelsat
0.99155434;0.0012754;8.3443;47.1348;89.4286;106.8366;0;-2.88E-6;0;Intelsat
0.99155413;0.0012758;8.3443;47.1345;89.4297;121.9584;0;-2.88E-6;0;Intelsat
0.9915497;0.0012822;8.3458;47.1292;89.3823;103.8514;0;-2.75E-6;0;Intelsat
0.99154486;0.0012896;8.3473;47.1233;89.3598;117.6996;0;-2.57E-6;0;Intelsat
0.99153976;0.0012969;8.3488;47.1176;89.3459;115.9187;0;-2.38E-6;0;Intelsat
0.99153471;0.0013034;8.3503;47.1119;89.3623;113.8584;0;-2.17E-6;0;Intelsat
0.99153471;0.0013034;8.3503;47.1119;89.3623;113.8584;0;-2.16E-6;0;Intelsat
0.99152967;0.00131;8.3517;47.1063;89.4033;104.6072;0;-1.94E-6;0;Intelsat
0.99152008;0.0013226;8.3546;47.0946;89.5363;93.8665;0;-1.43E-6;0;Intelsat
0.99151544;0.0013281;8.3563;47.0878;89.6411;146.0476;0;-1.13E-6;0;Intelsat
0.99151388;0.0013295;8.3569;47.0853;89.6688;293.2226;0;-1.03E-6;0;Intelsat
0.99151111;0.0013321;8.3578;47.0818;89.7623;139.9388;0;-8.7E-7;0;Intelsat
0.99150796;0.0013366;8.3592;47.0761;89.8656;129.8265;0;-6.2E-7;0;Intelsat
0.99150539;0.0013407;8.3606;47.0706;89.9594;109.0811;0;-3.8E-7;0;Intelsat
0.99150475;0.0013421;8.3608;47.0696;89.9669;171.8315;0;-3.3E-7;0;Intelsat
0.99150306;0.0013453;8.362;47.0648;90.0577;107.4574;0;-1.4E-7;0;Intelsat
0.99150156;0.0013486;8.3635;47.0591;90.1343;105.8291;0;8.0E-8;0;Intelsat
0.99150111;0.0013509;8.3641;47.0567;90.1611;260.6748;0;1.7E-7;0;Intelsat
0.99150117;0.0013522;8.3649;47.0535;90.2079;104.2278;0;2.7E-7;0;Intelsat
0.99150102;0.001356;8.3664;47.0478;90.2695;102.6272;0;4.3E-7;0;Intelsat
0.99150195;0.0013597;8.3678;47.0421;90.3215;101.035;0;5.6E-7;0;Intelsat
0.99150351;0.0013637;8.3693;47.0364;90.3636;99.4355;0;6.5E-7;0;Intelsat
0.99150525;0.0013673;8.3707;47.0307;90.3875;97.8732;0;7.0E-7;0;Intelsat
0.99150525;0.0013673;8.3707;47.0307;90.3875;97.8732;0;7.0E-7;0;Intelsat
0.99150848;0.0013715;8.3722;47.0248;90.4042;108.2875;0;7.1E-7;0;Intelsat
0.99150972;0.001374;8.3728;47.0226;90.4141;253.0415;0;7.1E-7;0;Intelsat
0.99151156;0.0013772;8.3736;47.0193;90.4364;94.7588;0;6.9E-7;0;Intelsat
0.99151558;0.0013799;8.3751;47.0137;90.4325;93.206;0;6.3E-7;0;Intelsat
0.9915199;0.0013843;8.3765;47.0081;90.4311;91.6643;0;5.4E-7;0;Intelsat
0.99152001;0.0013845;8.3766;47.008;90.4344;97.6366;0;5.3E-7;0;Intelsat
0.99152452;0.00139;8.378;47.0024;90.4459;90.1201;0;4.1E-7;0;Intelsat
0.99152916;0.0013963;8.3795;46.9966;90.4795;100.9291;0;2.6E-7;0;Intelsat
0.99152916;0.0013963;8.3795;46.9966;90.4795;100.9291;0;2.6E-7;0;Intelsat
0.99153361;0.0014015;8.381;46.9913;90.4968;87.026;0;9.0E-8;0;Intelsat
0.99153854;0.0014078;8.3824;46.9857;90.533;85.4617;0;-1.1E-7;0;Intelsat
0.9915391;0.0014087;8.3826;46.985;90.5554;127.0062;0;-1.3E-7;0;Intelsat
0.99154285;0.0014146;8.3839;46.9801;90.5827;83.8596;0;-3.2E-7;0;Intelsat
0.99154761;0.0014208;8.3853;46.9744;90.6293;82.2514;0;-5.4E-7;0;Intelsat
0.99154848;0.0014216;8.3855;46.9736;90.6619;134.9635;0;-5.8E-7;0;Intelsat
0.99155527;0.0014325;8.3881;46.9631;90.7681;79.0783;0;-1.02E-6;0;Intelsat
0.99155834;0.0014383;8.3896;46.9574;90.8659;77.4516;0;-1.26E-6;0;Intelsat
0.99155863;0.0014388;8.3897;46.9569;90.8872;103.0285;0;-1.28E-6;0;Intelsat
0.99156113;0.0014438;8.391;46.9515;90.9854;75.825;0;-1.5E-6;0;Intelsat
0.99156318;0.0014487;8.3924;46.9456;91.1112;78.2178;0;-1.74E-6;0;Intelsat
0.99156372;0.0014498;8.3928;46.9437;91.1779;182.7322;0;-1.8E-6;0;Intelsat
0.99156499;0.0014548;8.3945;46.9367;91.3351;251.6548;0;-2.05E-6;0;Intelsat
0.99156559;0.0014587;8.3954;46.9329;91.4483;115.7084;0;-2.17E-6;0;Intelsat
0.99156559;0.0014598;8.3959;46.9307;91.5034;249.9543;0;-2.24E-6;0;Intelsat
0.99156501;0.0014656;8.398;46.9216;91.7592;67.4318;0;-2.46E-6;0;Intelsat
0.99156495;0.0014664;8.3983;46.9206;91.8026;126.4075;0;-2.49E-6;0;Intelsat
0.99156489;0.0014671;8.3985;46.9196;91.8392;189.7419;0;-2.51E-6;0;Intelsat
0.99156346;0.0014711;8.4002;46.9128;92.0354;244.7893;0;-2.62E-6;0;Intelsat
0.99156229;0.0014727;8.4011;46.9091;92.1512;111.5802;0;-2.66E-6;0;Intelsat
0.99156019;0.0014749;8.4024;46.9037;92.2962;87.9201;0;-2.7E-6;0;Intelsat
0.99155972;0.0014751;8.4026;46.9028;92.3064;142.1103;0;-2.7E-6;0;Intelsat
0.9915565;0.0014786;8.4043;46.8957;92.4845;220.5145;0;-2.7E-6;0;Intelsat
0.99155453;0.0014795;8.4053;46.8917;92.5711;102.3244;0;-2.68E-6;0;Intelsat
0.99154965;0.0014829;8.4073;46.8834;92.736;262.1406;0;-2.59E-6;0;Intelsat
0.99154771;0.0014833;8.4081;46.88;92.7706;106.9495;0;-2.54E-6;0;Intelsat
0.99154664;0.0014848;8.4085;46.8785;92.7976;202.3762;0;-2.51E-6;0;Intelsat
0.99154173;0.0014884;8.4101;46.8717;92.9318;258.8824;0;-2.37E-6;0;Intelsat
0.9915397;0.0014893;8.4109;46.8684;92.9755;103.6925;0;-2.29E-6;0;Intelsat
0.99153857;0.0014907;8.4115;46.8663;92.9958;235.4469;0;-2.24E-6;0;Intelsat
0.99153518;0.0014932;8.4127;46.8614;93.055;179.1391;0;-2.1E-6;0;Intelsat
0.99153033;0.0014975;8.4143;46.8548;93.1545;225.1594;0;-1.89E-6;0;Intelsat
0.99153008;0.0014983;8.4144;46.8543;93.1841;253.9879;0;-1.87E-6;0;Intelsat
0.99152653;0.001503;8.4158;46.8483;93.2901;252.3912;0;-1.67E-6;0;Intelsat
0.99152303;0.0015067;8.4173;46.8425;93.3628;250.8026;0;-1.45E-6;0;Intelsat
0.99151988;0.0015112;8.4187;46.8368;93.4633;249.1498;0;-1.23E-6;0;Intelsat
